{"type": "FeatureCollection", "features": [ {"type": "Feature", "properties": {"norad_id": 43683, "name": "BEIDOU-3 G1 (C59)", "group": "gnss", "lat": -1.0962284058205263, "lon": -51.6571515298885, "alt_km": 35792.76747851779, "timestamp": "2025-12-02T06:27:53.257373+00:00", "meta": {"OBJECT_NAME": "BEIDOU-3 G1 (C59)", "OBJECT_ID": "2018-085A", "EPOCH": "2025-12-01T23:02:32.785152", "MEAN_MOTION": 1.00274254, "ECCENTRICITY": 0.0002122, "INCLINATION": 2.5784, "RA_OF_ASC_NODE": 103.2993, "ARG_OF_PERICENTER": 61.0214, "MEAN_ANOMALY": 32.4115, "EPHEMERIS_TYPE": 0, "CLASSIFICATION_TYPE": "U", "NORAD_CAT_ID": 43683, "ELEMENT_SET_NO": 999, "REV_AT_EPOCH": 2608, "BSTAR": 0, "MEAN_MOTION_DOT": -2.55e-06, "MEAN_MOTION_DDOT": 0}, "tle": {"line1": "1 43683U 18085A   25335.96010168 -.00000255  00000+0  00000+0 0  9996", "line2": "2 43683   2.5784 103.2993 0002122  61.0214  32.4115  1.00274254 26087"}}, "geometry": {"type": "Point", "coordinates": [-51.6571515298885, -1.0962284058205263]}}, {"type": "Feature", "properties": {"norad_id": 43687, "name": "COSMOS 2529 (757)", "group": "gnss", "lat": 39.0658434095165, "lon": -3.762393246058647, "alt_km": 19134.455948409668, "timestamp": "2025-12-02T06:27:53.257384+00:00", "meta": {"OBJECT_NAME": "COSMOS 2529 (757)", "OBJECT_ID": "2018-086A", "EPOCH": "2025-12-01T03:41:39.870816", "MEAN_MOTION": 2.13101897, "ECCENTRICITY": 0.0007348, "INCLINATION": 64.2916, "RA_OF_ASC_NODE": 199.28, "ARG_OF_PERICENTER": 254.5997, "MEAN_ANOMALY": 105.4111, "EPHEMERIS_TYPE": 0, "CLASSIFICATION_TYPE": "U", "NORAD_CAT_ID": 43687, "ELEMENT_SET_NO": 999, "REV_AT_EPOCH": 5506, "BSTAR": 0, "MEAN_MOTION_DOT": 9.9e-07, "MEAN_MOTION_DDOT": 0}, "tle": {"line1": "1 43687U 18086A   25335.15393369  .00000099  00000+0  00000+0 0  9994", "line2": "2 43687  64.2916 199.2800 0007348 254.5997 105.4111  2.13101897 55061"}}, "geometry": {"type": "Point", "coordinates": [-3.762393246058647, 39.0658434095165]}}, {"type": "Feature", "properties": {"norad_id": 43706, "name": "BEIDOU-3 M17 (C36)", "group": "gnss", "lat": 11.909662193223877, "lon": -162.25085844533618, "alt_km": 21520.54504345629, "timestamp": "2025-12-02T06:27:53.257396+00:00", "meta": {"OBJECT_NAME": "BEIDOU-3 M17 (C36)", "OBJECT_ID": "2018-093A", "EPOCH": "2025-11-30T05:23:59.265600", "MEAN_MOTION": 1.86228182, "ECCENTRICITY": 0.00063751, "INCLINATION": 54.1727, "RA_OF_ASC_NODE": 189.0472, "ARG_OF_PERICENTER": 306.0351, "MEAN_ANOMALY": 138.1008, "EPHEMERIS_TYPE": 0, "CLASSIFICATION_TYPE": "U", "NORAD_CAT_ID": 43706, "ELEMENT_SET_NO": 999, "REV_AT_EPOCH": 4783, "BSTAR": 0, "MEAN_MOTION_DOT": 1.11e-06, "MEAN_MOTION_DDOT": 0}, "tle": {"line1": "1 43706U 18093A   25334.22499150  .00000111  00000+0  00000+0 0  9991", "line2": "2 43706  54.1727 189.0472 0006375 306.0351 138.1008  1.86228182 47839"}}, "geometry": {"type": "Point", "coordinates": [-162.25085844533618, 11.909662193223877]}}, {"type": "Feature", "properties": {"norad_id": 43707, "name": "BEIDOU-3 M18 (C37)", "group": "gnss", "lat": 50.54552940500788, "lon": -52.38022005858467, "alt_km": 21530.53924308467, "timestamp": "2025-12-02T06:27:53.257410+00:00", "meta": {"OBJECT_NAME": "BEIDOU-3 M18 (C37)", "OBJECT_ID": "2018-093B", "EPOCH": "2025-12-01T00:50:13.072128", "MEAN_MOTION": 1.86226416, "ECCENTRICITY": 0.0006364, "INCLINATION": 54.1734, "RA_OF_ASC_NODE": 189.0115, "ARG_OF_PERICENTER": 350.6822, "MEAN_ANOMALY": 9.3993, "EPHEMERIS_TYPE": 0, "CLASSIFICATION_TYPE": "U", "NORAD_CAT_ID": 43707, "ELEMENT_SET_NO": 999, "REV_AT_EPOCH": 4784, "BSTAR": 0, "MEAN_MOTION_DOT": 1.18e-06, "MEAN_MOTION_DDOT": 0}, "tle": {"line1": "1 43707U 18093B   25335.03487352  .00000118  00000+0  00000+0 0  9990", "line2": "2 43707  54.1734 189.0115 0006364 350.6822   9.3993  1.86226416 47849"}}, "geometry": {"type": "Point", "coordinates": [-52.38022005858467, 50.54552940500788]}}, {"type": "Feature", "properties": {"norad_id": 43873, "name": "GPS BIII-1  (PRN 04)", "group": "gnss", "lat": 29.45052307753423, "lon": -102.83441474476014, "alt_km": 20117.167323987887, "timestamp": "2025-12-02T06:27:53.257422+00:00", "meta": {"OBJECT_NAME": "GPS BIII-1  (PRN 04)", "OBJECT_ID": "2018-109A", "EPOCH": "2025-12-01T14:03:36.800640", "MEAN_MOTION": 2.00553137, "ECCENTRICITY": 0.00371823, "INCLINATION": 55.5605, "RA_OF_ASC_NODE": 99.9877, "ARG_OF_PERICENTER": 194.4831, "MEAN_ANOMALY": 175.6663, "EPHEMERIS_TYPE": 0, "CLASSIFICATION_TYPE": "U", "NORAD_CAT_ID": 43873, "ELEMENT_SET_NO": 999, "REV_AT_EPOCH": 5111, "BSTAR": 0, "MEAN_MOTION_DOT": 2.2e-07, "MEAN_MOTION_DDOT": 0}, "tle": {"line1": "1 43873U 18109A   25335.58584260  .00000022  00000+0  00000+0 0  9992", "line2": "2 43873  55.5605  99.9877 0037182 194.4831 175.6663  2.00553137 51111"}}, "geometry": {"type": "Point", "coordinates": [-102.83441474476014, 29.45052307753423]}}, {"type": "Feature", "properties": {"norad_id": 44204, "name": "BEIDOU-3 IGSO-1 (C38)", "group": "gnss", "lat": -49.35554202673994, "lon": -94.62198090813685, "alt_km": 35692.4670779304, "timestamp": "2025-12-02T06:27:53.257433+00:00", "meta": {"OBJECT_NAME": "BEIDOU-3 IGSO-1 (C38)", "OBJECT_ID": "2019-023A", "EPOCH": "2025-11-19T14:15:02.708640", "MEAN_MOTION": 1.00252177, "ECCENTRICITY": 0.0026966, "INCLINATION": 58.4003, "RA_OF_ASC_NODE": 39.8168, "ARG_OF_PERICENTER": 221.2202, "MEAN_ANOMALY": 126.9723, "EPHEMERIS_TYPE": 0, "CLASSIFICATION_TYPE": "U", "NORAD_CAT_ID": 44204, "ELEMENT_SET_NO": 999, "REV_AT_EPOCH": 510, "BSTAR": 0, "MEAN_MOTION_DOT": -2.26e-06, "MEAN_MOTION_DDOT": 0}, "tle": {"line1": "1 44204U 19023A   25323.59378135 -.00000226  00000+0  00000+0 0  9994", "line2": "2 44204  58.4003  39.8168 0026966 221.2202 126.9723  1.00252177  5102"}}, "geometry": {"type": "Point", "coordinates": [-94.62198090813685, -49.35554202673994]}}, {"type": "Feature", "properties": {"norad_id": 44231, "name": "BEIDOU-2 G8 (C01)", "group": "gnss", "lat": -1.3880083925864588, "lon": -47.13878717637276, "alt_km": 35753.70294155113, "timestamp": "2025-12-02T06:27:53.257448+00:00", "meta": {"OBJECT_NAME": "BEIDOU-2 G8 (C01)", "OBJECT_ID": "2019-027A", "EPOCH": "2025-12-01T19:38:18.306816", "MEAN_MOTION": 1.00270736, "ECCENTRICITY": 0.0008199, "INCLINATION": 1.6318, "RA_OF_ASC_NODE": 74.6903, "ARG_OF_PERICENTER": 255.2015, "MEAN_ANOMALY": 180.1944, "EPHEMERIS_TYPE": 0, "CLASSIFICATION_TYPE": "U", "NORAD_CAT_ID": 44231, "ELEMENT_SET_NO": 999, "REV_AT_EPOCH": 2410, "BSTAR": 0, "MEAN_MOTION_DOT": -2.26e-06, "MEAN_MOTION_DDOT": 0}, "tle": {"line1": "1 44231U 19027A   25335.81826744 -.00000226  00000+0  00000+0 0  9990", "line2": "2 44231   1.6318  74.6903 0008199 255.2015 180.1944  1.00270736 24101"}}, "geometry": {"type": "Point", "coordinates": [-47.13878717637276, -1.3880083925864588]}}, {"type": "Feature", "properties": {"norad_id": 44299, "name": "COSMOS 2534 (758)", "group": "gnss", "lat": -64.36232190090041, "lon": 109.38729562858539, "alt_km": 19113.876647578934, "timestamp": "2025-12-02T06:27:53.257461+00:00", "meta": {"OBJECT_NAME": "COSMOS 2534 (758)", "OBJECT_ID": "2019-030A", "EPOCH": "2025-12-01T03:07:57.438624", "MEAN_MOTION": 2.1310195, "ECCENTRICITY": 0.00091167, "INCLINATION": 64.3652, "RA_OF_ASC_NODE": 199.2842, "ARG_OF_PERICENTER": 283.4428, "MEAN_ANOMALY": 193.0266, "EPHEMERIS_TYPE": 0, "CLASSIFICATION_TYPE": "U", "NORAD_CAT_ID": 44299, "ELEMENT_SET_NO": 999, "REV_AT_EPOCH": 5070, "BSTAR": 0, "MEAN_MOTION_DOT": 9.9e-07, "MEAN_MOTION_DDOT": 0}, "tle": {"line1": "1 44299U 19030A   25335.13052591  .00000099  00000+0  00000+0 0  9991", "line2": "2 44299  64.3652 199.2842 0009116 283.4428 193.0266  2.13101950 50700"}}, "geometry": {"type": "Point", "coordinates": [109.38729562858539, -64.36232190090041]}}, {"type": "Feature", "properties": {"norad_id": 44337, "name": "BEIDOU-3 IGSO-2 (C39)", "group": "gnss", "lat": 41.06547237864743, "lon": -56.73879461941932, "alt_km": 35740.90794288434, "timestamp": "2025-12-02T06:27:53.257473+00:00", "meta": {"OBJECT_NAME": "BEIDOU-3 IGSO-2 (C39)", "OBJECT_ID": "2019-035A", "EPOCH": "2025-12-01T05:17:49.661952", "MEAN_MOTION": 1.00274502, "ECCENTRICITY": 0.00376064, "INCLINATION": 55.2223, "RA_OF_ASC_NODE": 160.6035, "ARG_OF_PERICENTER": 202.2564, "MEAN_ANOMALY": 266.4761, "EPHEMERIS_TYPE": 0, "CLASSIFICATION_TYPE": "U", "NORAD_CAT_ID": 44337, "ELEMENT_SET_NO": 999, "REV_AT_EPOCH": 2368, "BSTAR": 0, "MEAN_MOTION_DOT": -2.5e-07, "MEAN_MOTION_DDOT": 0}, "tle": {"line1": "1 44337U 19035A   25335.22071368 -.00000025  00000+0  00000+0 0  9992", "line2": "2 44337  55.2223 160.6035 0037606 202.2564 266.4761  1.00274502 23688"}}, "geometry": {"type": "Point", "coordinates": [-56.73879461941932, 41.06547237864743]}}, {"type": "Feature", "properties": {"norad_id": 44506, "name": "GPS BIII-2  (PRN 18)", "group": "gnss", "lat": 32.0218614005899, "lon": 4.217678160176329, "alt_km": 20320.757344313526, "timestamp": "2025-12-02T06:27:53.257485+00:00", "meta": {"OBJECT_NAME": "GPS BIII-2  (PRN 18)", "OBJECT_ID": "2019-056A", "EPOCH": "2025-12-01T10:53:28.832352", "MEAN_MOTION": 2.00565577, "ECCENTRICITY": 0.00578098, "INCLINATION": 55.7254, "RA_OF_ASC_NODE": 339.0016, "ARG_OF_PERICENTER": 198.3769, "MEAN_ANOMALY": 332.9368, "EPHEMERIS_TYPE": 0, "CLASSIFICATION_TYPE": "U", "NORAD_CAT_ID": 44506, "ELEMENT_SET_NO": 999, "REV_AT_EPOCH": 4610, "BSTAR": 0, "MEAN_MOTION_DOT": -5.6e-07, "MEAN_MOTION_DDOT": 0}, "tle": {"line1": "1 44506U 19056A   25335.45380593 -.00000056  00000+0  00000+0 0  9995", "line2": "2 44506  55.7254 339.0016 0057809 198.3769 332.9368  2.00565577 46105"}}, "geometry": {"type": "Point", "coordinates": [4.217678160176329, 32.0218614005899]}}]}